[{"CCSDS_OMM_VERS": "2.0", "COMMENT": "GENERATED VIA SPACE-TRACK.ORG API", "CREATION_DATE": "2022-05-25T02:33:42", "ORIGINATOR": "18 SPCS", "OBJECT_NAME": "EGS (AJISAI)", "OBJECT_ID": "1986-061A", "CENTER_NAME": "EARTH", "REF_FRAME": "TEME", "TIME_SYSTEM": "UTC", "MEAN_ELEMENT_THEORY": "SGP4", "EPOCH": "2022-05-24T21:29:06.180288", "MEAN_MOTION": "12.44496178", "ECCENTRICITY": "0.00114030", "INCLINATION": "50.0118", "RA_OF_ASC_NODE": "31.4763", "ARG_OF_PERICENTER": "3.0238", "MEAN_ANOMALY": "83.4721", "EPHEMERIS_TYPE": "0", "CLASSIFICATION_TYPE": "U", "NORAD_CAT_ID": "16908", "ELEMENT_SET_NO": "999", "REV_AT_EPOCH": "29556", "BSTAR": "-0.00005063200000", "MEAN_MOTION_DOT": "-0.00000105", "MEAN_MOTION_DDOT": "0.0000000000000", "SEMIMAJOR_AXIS": "7865.738", "PERIOD": "115.709", "APOAPSIS": "1496.572", "PERIAPSIS": "1478.633", "OBJECT_TYPE": "PAYLOAD", "RCS_SIZE": "LARGE", "COUNTRY_CODE": "JPN", "LAUNCH_DATE": "1986-08-12", "SITE": "TNSTA", "DECAY_DATE": null, "FILE": "3462783", "GP_ID": "204438121", "TLE_LINE0": "0 EGS (AJISAI)", "TLE_LINE1": "1 16908U 86061A   22144.89521042 -.00000105  00000-0 -50632-4 0  9997", "TLE_LINE2": "2 16908  50.0118  31.4763 0011403   3.0238  83.4721 12.44496178295568"}, {"CCSDS_OMM_VERS": "2.0", "COMMENT": "GENERATED VIA SPACE-TRACK.ORG API", "CREATION_DATE": "2022-05-25T02:33:42", "ORIGINATOR": "18 SPCS", "OBJECT_NAME": "JASON", "OBJECT_ID": "2001-055A", "CENTER_NAME": "EARTH", "REF_FRAME": "TEME", "TIME_SYSTEM": "UTC", "MEAN_ELEMENT_THEORY": "SGP4", "EPOCH": "2022-05-24T20:11:32.379936", "MEAN_MOTION": "12.84007708", "ECCENTRICITY": "0.00092100", "INCLINATION": "66.0400", "RA_OF_ASC_NODE": "294.3802", "ARG_OF_PERICENTER": "273.2768", "MEAN_ANOMALY": "195.7824", "EPHEMERIS_TYPE": "0", "CLASSIFICATION_TYPE": "U", "NORAD_CAT_ID": "26997", "ELEMENT_SET_NO": "999", "REV_AT_EPOCH": "95805", "BSTAR": "0.00005104400000", "MEAN_MOTION_DOT": "-0.00000049", "MEAN_MOTION_DDOT": "0.0000000000000", "SEMIMAJOR_AXIS": "7703.535", "PERIOD": "112.149", "APOAPSIS": "1332.495", "PERIAPSIS": "1318.306", "OBJECT_TYPE": "PAYLOAD", "RCS_SIZE": "LARGE", "COUNTRY_CODE": "US", "LAUNCH_DATE": "2001-12-07", "SITE": "AFWTR", "DECAY_DATE": null, "FILE": "3462783", "GP_ID": "204440797", "TLE_LINE0": "0 JASON", "TLE_LINE1": "1 26997U 01055A   22144.84134699 -.00000049  00000-0  51044-4 0  9993", "TLE_LINE2": "2 26997  66.0400 294.3802 0009210 273.2768 195.7824 12.84007708958056"}]